COSMOS 2426 (717)       
1 29671U 06062B   19076.15088162  .00000067  00000-0  10000-3 0  9990
2 29671  65.1659 283.4069 0016658 158.9190  17.6883  2.13103078 95136
COSMOS 2433 (720)       
1 32275U 07052A   19075.81784372 -.00000011  00000-0  10000-3 0  9992
2 32275  65.8151  44.2263 0005100 278.4472 339.0375  2.13104517 88637
COSMOS 2432 (719)       
1 32276U 07052B   19075.88241182 -.00000012  00000-0  10000-3 0  9998
2 32276  65.8271  44.3054 0013268 325.6820 292.6202  2.13103909 88633
COSMOS 2434 (721)       
1 32393U 07065A   19076.56611817  .00000064  00000-0  00000+0 0  9995
2 32393  64.7614 282.1344 0005193  86.6906 272.3473  2.13103003 87351
COSMOS 2436 (723)       
1 32395U 07065C   19076.50118965  .00000065  00000-0  10000-3 0  9993
2 32395  64.7735 282.1894 0017177   5.5831 355.4748  2.13104387 87296
COSMOS 2456 (730)       
1 36111U 09070A   19075.73857385 -.00000001  00000-0  00000+0 0  9997
2 36111  64.1946 161.7851 0004236 318.0057 299.0695  2.13102846 72008
COSMOS 2457 (733)       
1 36112U 09070B   19076.07859417 -.00000000  00000-0  00000+0 0  9993
2 36112  64.1769 161.6793 0005686 168.5037 114.9486  2.13101554 72011
COSMOS 2459 (731)       
1 36400U 10007A   19075.54810472 -.00000012  00000-0  10000-3 0  9992
2 36400  65.7208  43.2621 0028036 346.6937 280.5401  2.13102246 70354
COSMOS 2461 (735)       
1 36401U 10007B   19075.67358344 -.00000013  00000-0  10000-3 0  9993
2 36401  65.7142  43.2315 0005642  40.4809 233.5515  2.13102222 70355
COSMOS 2460 (732)       
1 36402U 10007C   19076.08499969 -.00000016  00000-0  10000-3 0  9992
2 36402  65.7035  43.1826 0002753 301.0918 328.6694  2.13101590 70362
COSMOS 2464 (736)       
1 37139U 10041C   19076.29494874  .00000065  00000-0  00000+0 0  9999
2 37139  64.3669 281.8114 0026526  15.1830   2.7762  2.13100672 66449
COSMOS 2474 (742)       
1 37829U 11055A   19075.70121362 -.00000002  00000-0  00000-0 0  9998
2 37829  64.5178 162.6188 0008569 245.3835 199.8928  2.13101865 58008
COSMOS 2476 (744)       
1 37867U 11064A   19076.40364775  .00000000  00000-0  00000+0 0  9991
2 37867  64.4975 162.6501 0018656 239.7536  70.5201  2.13101962 57361
COSMOS 2477 (745)       
1 37868U 11064B   19076.13956019 -.00000001  00000-0  00000+0 0  9992
2 37868  64.5055 162.7100 0016373 241.4982  44.9239  2.13101745 57317
COSMOS 2475 (743)       
1 37869U 11064C   19076.42302733  .00000000  00000-0  00000+0 0  9991
2 37869  64.5139 162.6969 0020590 265.2789 195.6062  2.13101906 57337
COSMOS 2485 (747)       
1 39155U 13019A   19076.43641715  .00000000  00000-0  00000+0 0  9990
2 39155  64.6661 162.8181 0019108 235.0686 145.1178  2.13101876 45847
COSMOS 2492 (754)       
1 39620U 14012A   19075.75183750 -.00000014  00000-0  10000-3 0  9996
2 39620  65.5943  43.0408 0016490 323.1836 286.8548  2.13103435 38777
COSMOS 2500 (755)       
1 40001U 14032A   19075.84261031 -.00000015  00000-0  00000+0 0  9998
2 40001  65.5351  42.9861 0006598 232.4019 308.8929  2.13102776 36996
COSMOS 2501 (702K)      
1 40315U 14075A   19075.81955646  .00000065  00000-0  00000-0 0  9997
2 40315  64.0895 282.9424 0014581 204.5254 117.9172  2.13098594 33396
COSMOS 2514 (751)       
1 41330U 16008A   19076.44440471 -.00000020  00000-0  00000+0 0  9999
2 41330  65.3380  42.9525 0010269 231.3909 233.0774  2.13103209 24171
COSMOS 2516 (753)       
1 41554U 16032A   19075.31810946  .00000067  00000-0  00000-0 0  9998
2 41554  64.3065 282.9046 0010093 216.1350 354.9442  2.13101847 21750
COSMOS 2522 (752)       
1 42939U 17055A   19075.45396749  .00000068  00000-0  00000-0 0  9998
2 42939  64.5417 282.9427 0005085 253.7944 287.9944  2.13102093 11514
COSMOS 2527 (756)       
1 43508U 18053A   19075.53268351 -.00000002  00000-0  00000+0 0  9994
2 43508  64.8307 162.6000 0007124 232.6635  40.4906  2.13102607  5804
COSMOS 2529 (757)       
1 43687U 18086A   19076.21103955  .00000066  00000-0  00000+0 0  9991
2 43687  64.7536 282.9129 0008311 282.2462  76.0625  2.13102124  2838
